[{"OBJECT_NAME":"STARLINK-36831","OBJECT_ID":"2026-034Q","EPOCH":"2026-03-11T19:22:36.725664","MEAN_MOTION":15.8094843,"ECCENTRICITY":8.48e-5,"INCLINATION":53.1585,"RA_OF_ASC_NODE":200.6204,"ARG_OF_PERICENTER":70.8407,"MEAN_ANOMALY":289.2707,"EPHEMERIS_TYPE":0,"CLASSIFICATION_TYPE":"U","NORAD_CAT_ID":67864,"ELEMENT_SET_NO":999,"REV_AT_EPOCH":427,"BSTAR":0.0011917,"MEAN_MOTION_DOT":0.00242064,"MEAN_MOTION_DDOT":0},{"OBJECT_NAME":"STARLINK-36738","OBJECT_ID":"2026-034R","EPOCH":"2026-03-11T19:21:31.973184","MEAN_MOTION":15.80926131,"ECCENTRICITY":8.7e-5,"INCLINATION":53.1586,"RA_OF_ASC_NODE":200.6147,"ARG_OF_PERICENTER":93.2696,"MEAN_ANOMALY":266.8426,"EPHEMERIS_TYPE":0,"CLASSIFICATION_TYPE":"U","NORAD_CAT_ID":67865,"ELEMENT_SET_NO":999,"REV_AT_EPOCH":427,"BSTAR":0.0009045,"MEAN_MOTION_DOT":0.00182078,"MEAN_MOTION_DDOT":0},{"OBJECT_NAME":"STARLINK-36780","OBJECT_ID":"2026-034S","EPOCH":"2026-03-11T19:20:27.370176","MEAN_MOTION":15.80916527,"ECCENTRICITY":0.0001134,"INCLINATION":53.1591,"RA_OF_ASC_NODE":200.6082,"ARG_OF_PERICENTER":82.4565,"MEAN_ANOMALY":277.6586,"EPHEMERIS_TYPE":0,"CLASSIFICATION_TYPE":"U","NORAD_CAT_ID":67866,"ELEMENT_SET_NO":999,"REV_AT_EPOCH":427,"BSTAR":0.00095185,"MEAN_MOTION_DOT":0.00191778,"MEAN_MOTION_DDOT":0},{"OBJECT_NAME":"STARLINK-36761","OBJECT_ID":"2026-034T","EPOCH":"2026-03-11T19:19:22.424160","MEAN_MOTION":15.80933671,"ECCENTRICITY":0.0001071,"INCLINATION":53.1591,"RA_OF_ASC_NODE":200.6032,"ARG_OF_PERICENTER":82.5336,"MEAN_ANOMALY":277.5808,"EPHEMERIS_TYPE":0,"CLASSIFICATION_TYPE":"U","NORAD_CAT_ID":67867,"ELEMENT_SET_NO":999,"REV_AT_EPOCH":427,"BSTAR":0.00094845,"MEAN_MOTION_DOT":0.0019123,"MEAN_MOTION_DDOT":0},{"OBJECT_NAME":"STARLINK-36762","OBJECT_ID":"2026-034U","EPOCH":"2026-03-11T19:18:17.333856","MEAN_MOTION":15.80991135,"ECCENTRICITY":8.97e-5,"INCLINATION":53.1586,"RA_OF_ASC_NODE":200.5986,"ARG_OF_PERICENTER":100.0422,"MEAN_ANOMALY":260.0702,"EPHEMERIS_TYPE":0,"CLASSIFICATION_TYPE":"U","NORAD_CAT_ID":67868,"ELEMENT_SET_NO":999,"REV_AT_EPOCH":427,"BSTAR":0.0014945,"MEAN_MOTION_DOT":0.00306643,"MEAN_MOTION_DDOT":0},{"OBJECT_NAME":"STARLINK-36779","OBJECT_ID":"2026-034V","EPOCH":"2026-03-11T19:17:12.842304","MEAN_MOTION":15.80972864,"ECCENTRICITY":0.0001151,"INCLINATION":53.1588,"RA_OF_ASC_NODE":200.5929,"ARG_OF_PERICENTER":96.6796,"MEAN_ANOMALY":263.4357,"EPHEMERIS_TYPE":0,"CLASSIFICATION_TYPE":"U","NORAD_CAT_ID":67869,"ELEMENT_SET_NO":999,"REV_AT_EPOCH":427,"BSTAR":0.0014498,"MEAN_MOTION_DOT":0.00296856,"MEAN_MOTION_DDOT":0},{"OBJECT_NAME":"STARLINK-36770","OBJECT_ID":"2026-034W","EPOCH":"2026-03-11T19:15:03.162816","MEAN_MOTION":15.80927121,"ECCENTRICITY":0.0001187,"INCLINATION":53.159,"RA_OF_ASC_NODE":200.5823,"ARG_OF_PERICENTER":83.2227,"MEAN_ANOMALY":276.8931,"EPHEMERIS_TYPE":0,"CLASSIFICATION_TYPE":"U","NORAD_CAT_ID":67870,"ELEMENT_SET_NO":999,"REV_AT_EPOCH":427,"BSTAR":0.00092943,"MEAN_MOTION_DOT":0.00187238,"MEAN_MOTION_DDOT":0},{"OBJECT_NAME":"STARLINK-36769","OBJECT_ID":"2026-034X","EPOCH":"2026-03-11T20:47:09.794112","MEAN_MOTION":15.80998884,"ECCENTRICITY":8.2e-5,"INCLINATION":53.1589,"RA_OF_ASC_NODE":200.2714,"ARG_OF_PERICENTER":67.7119,"MEAN_ANOMALY":292.3991,"EPHEMERIS_TYPE":0,"CLASSIFICATION_TYPE":"U","NORAD_CAT_ID":67871,"ELEMENT_SET_NO":999,"REV_AT_EPOCH":428,"BSTAR":0.0016302,"MEAN_MOTION_DOT":0.00335835,"MEAN_MOTION_DDOT":0},{"OBJECT_NAME":"STARLINK-36786","OBJECT_ID":"2026-034Y","EPOCH":"2026-03-11T19:13:58.147680","MEAN_MOTION":15.80999512,"ECCENTRICITY":0.0001095,"INCLINATION":53.1586,"RA_OF_ASC_NODE":200.5786,"ARG_OF_PERICENTER":69.1761,"MEAN_ANOMALY":290.9378,"EPHEMERIS_TYPE":0,"CLASSIFICATION_TYPE":"U","NORAD_CAT_ID":67872,"ELEMENT_SET_NO":999,"REV_AT_EPOCH":427,"BSTAR":0.0016483,"MEAN_MOTION_DOT":0.0033973,"MEAN_MOTION_DDOT":0},{"OBJECT_NAME":"STARLINK-36783","OBJECT_ID":"2026-034Z","EPOCH":"2026-03-11T19:12:53.325216","MEAN_MOTION":15.80986951,"ECCENTRICITY":0.0001144,"INCLINATION":53.1589,"RA_OF_ASC_NODE":200.5731,"ARG_OF_PERICENTER":70.0272,"MEAN_ANOMALY":290.0874,"EPHEMERIS_TYPE":0,"CLASSIFICATION_TYPE":"U","NORAD_CAT_ID":67873,"ELEMENT_SET_NO":999,"REV_AT_EPOCH":427,"BSTAR":0.0015176,"MEAN_MOTION_DOT":0.00311516,"MEAN_MOTION_DDOT":0},{"OBJECT_NAME":"STARLINK-36730","OBJECT_ID":"2026-034AA","EPOCH":"2026-03-11T19:11:48.670368","MEAN_MOTION":15.80960287,"ECCENTRICITY":0.0001093,"INCLINATION":53.1586,"RA_OF_ASC_NODE":200.5684,"ARG_OF_PERICENTER":93.4013,"MEAN_ANOMALY":266.7135,"EPHEMERIS_TYPE":0,"CLASSIFICATION_TYPE":"U","NORAD_CAT_ID":67874,"ELEMENT_SET_NO":999,"REV_AT_EPOCH":427,"BSTAR":0.0012832,"MEAN_MOTION_DOT":0.00261431,"MEAN_MOTION_DDOT":0},{"OBJECT_NAME":"STARLINK-36727","OBJECT_ID":"2026-034AB","EPOCH":"2026-03-11T19:10:43.537728","MEAN_MOTION":15.80973847,"ECCENTRICITY":6.2e-5,"INCLINATION":53.1585,"RA_OF_ASC_NODE":200.5617,"ARG_OF_PERICENTER":70.4264,"MEAN_ANOMALY":289.6826,"EPHEMERIS_TYPE":0,"CLASSIFICATION_TYPE":"U","NORAD_CAT_ID":67875,"ELEMENT_SET_NO":999,"REV_AT_EPOCH":427,"BSTAR":0.0013447,"MEAN_MOTION_DOT":0.00274584,"MEAN_MOTION_DDOT":0},{"OBJECT_NAME":"STARLINK-36743","OBJECT_ID":"2026-034AC","EPOCH":"2026-03-11T19:09:38.924352","MEAN_MOTION":15.80960781,"ECCENTRICITY":7.01e-5,"INCLINATION":53.159,"RA_OF_ASC_NODE":200.5568,"ARG_OF_PERICENTER":77.2375,"MEAN_ANOMALY":282.8726,"EPHEMERIS_TYPE":0,"CLASSIFICATION_TYPE":"U","NORAD_CAT_ID":67876,"ELEMENT_SET_NO":999,"REV_AT_EPOCH":427,"BSTAR":0.0011934,"MEAN_MOTION_DOT":0.00242555,"MEAN_MOTION_DDOT":0},{"OBJECT_NAME":"STARLINK-36784","OBJECT_ID":"2026-034AD","EPOCH":"2026-03-11T19:08:33.984384","MEAN_MOTION":15.80980434,"ECCENTRICITY":6.18e-5,"INCLINATION":53.159,"RA_OF_ASC_NODE":200.5525,"ARG_OF_PERICENTER":109.0416,"MEAN_ANOMALY":251.0673,"EPHEMERIS_TYPE":0,"CLASSIFICATION_TYPE":"U","NORAD_CAT_ID":67877,"ELEMENT_SET_NO":999,"REV_AT_EPOCH":427,"BSTAR":0.0013987,"MEAN_MOTION_DOT":0.00286129,"MEAN_MOTION_DDOT":0},{"OBJECT_NAME":"STARLINK-36689","OBJECT_ID":"2026-034AE","EPOCH":"2026-03-11T20:38:31.439040","MEAN_MOTION":15.80982192,"ECCENTRICITY":0.0001426,"INCLINATION":53.1585,"RA_OF_ASC_NODE":200.23,"ARG_OF_PERICENTER":48.7696,"MEAN_ANOMALY":311.3449,"EPHEMERIS_TYPE":0,"CLASSIFICATION_TYPE":"U","NORAD_CAT_ID":67878,"ELEMENT_SET_NO":999,"REV_AT_EPOCH":428,"BSTAR":0.0014003,"MEAN_MOTION_DOT":0.0028647,"MEAN_MOTION_DDOT":0},{"OBJECT_NAME":"STARLINK-36818","OBJECT_ID":"2026-035A","EPOCH":"2026-03-11T20:00:01.999008","MEAN_MOTION":15.82407212,"ECCENTRICITY":0.0001503,"INCLINATION":97.2752,"RA_OF_ASC_NODE":3.2929,"ARG_OF_PERICENTER":88.3899,"MEAN_ANOMALY":78.5323,"EPHEMERIS_TYPE":0,"CLASSIFICATION_TYPE":"U","NORAD_CAT_ID":67879,"ELEMENT_SET_NO":999,"REV_AT_EPOCH":410,"BSTAR":-0.0063338,"MEAN_MOTION_DOT":-0.01166794,"MEAN_MOTION_DDOT":0},{"OBJECT_NAME":"STARLINK-36821","OBJECT_ID":"2026-035B","EPOCH":"2026-03-11T20:00:01.999008","MEAN_MOTION":15.82404903,"ECCENTRICITY":0.0001507,"INCLINATION":97.2744,"RA_OF_ASC_NODE":3.296,"ARG_OF_PERICENTER":88.0524,"MEAN_ANOMALY":87.4947,"EPHEMERIS_TYPE":0,"CLASSIFICATION_TYPE":"U","NORAD_CAT_ID":67880,"ELEMENT_SET_NO":999,"REV_AT_EPOCH":410,"BSTAR":-0.0066596,"MEAN_MOTION_DOT":-0.01220068,"MEAN_MOTION_DDOT":0}]
