STARLINK-36831          
1 67864U 26034Q   26070.80736951  .00242064  00000+0  11917-2 0  9998
2 67864  53.1585 200.6204 0000848  70.8407 289.2707 15.80948430  4270
STARLINK-36738          
1 67865U 26034R   26070.80662006  .00182078  00000+0  90450-3 0  9996
2 67865  53.1586 200.6147 0000870  93.2696 266.8426 15.80926131  4275
STARLINK-36780          
1 67866U 26034S   26070.80587234  .00191778  00000+0  95185-3 0  9993
2 67866  53.1591 200.6082 0001134  82.4565 277.6586 15.80916527  4274
STARLINK-36761          
1 67867U 26034T   26070.80512065  .00191230  00000+0  94845-3 0  9999
2 67867  53.1591 200.6032 0001071  82.5336 277.5808 15.80933671  4272
STARLINK-36762          
1 67868U 26034U   26070.80436729  .00306643  00000+0  14945-2 0  9990
2 67868  53.1586 200.5986 0000897 100.0422 260.0702 15.80991135  4270
STARLINK-36779          
1 67869U 26034V   26070.80362086  .00296856  00000+0  14498-2 0  9992
2 67869  53.1588 200.5929 0001151  96.6796 263.4357 15.80972864  4279
STARLINK-36770          
1 67870U 26034W   26070.80211994  .00187238  00000+0  92943-3 0  9990
2 67870  53.1590 200.5823 0001187  83.2227 276.8931 15.80927121  4279
STARLINK-36769          
1 67871U 26034X   26070.86608558  .00335835  00000+0  16302-2 0  9995
2 67871  53.1589 200.2714 0000820  67.7119 292.3991 15.80998884  4288
STARLINK-36786          
1 67872U 26034Y   26070.80136745  .00339730  00000+0  16483-2 0  9992
2 67872  53.1586 200.5786 0001095  69.1761 290.9378 15.80999512  4273
STARLINK-36783          
1 67873U 26034Z   26070.80061719  .00311516  00000+0  15176-2 0  9991
2 67873  53.1589 200.5731 0001144  70.0272 290.0874 15.80986951  4275
STARLINK-36730          
1 67874U 26034AA  26070.79986887  .00261431  00000+0  12832-2 0  9998
2 67874  53.1586 200.5684 0001093  93.4013 266.7135 15.80960287  4279
STARLINK-36727          
1 67875U 26034AB  26070.79911502  .00274584  00000+0  13447-2 0  9997
2 67875  53.1585 200.5617 0000620  70.4264 289.6826 15.80973847  4270
STARLINK-36743          
1 67876U 26034AC  26070.79836718  .00242555  00000+0  11934-2 0  9995
2 67876  53.1590 200.5568 0000701  77.2375 282.8726 15.80960781  4277
STARLINK-36784          
1 67877U 26034AD  26070.79761556  .00286129  00000+0  13987-2 0  9998
2 67877  53.1590 200.5525 0000618 109.0416 251.0673 15.80980434  4274
STARLINK-36689          
1 67878U 26034AE  26070.86008610  .00286470  00000+0  14003-2 0  9991
2 67878  53.1585 200.2300 0001426  48.7696 311.3449 15.80982192  4289
STARLINK-36818          
1 67879U 26035A   26070.83335647 -.01166794  00000+0 -63338-2 0  9997
2 67879  97.2752   3.2929 0001503  88.3899  78.5323 15.82407212  4105
STARLINK-36821          
1 67880U 26035B   26070.83335647 -.01220068  00000+0 -66596-2 0  9993
2 67880  97.2744   3.2960 0001507  88.0524  87.4947 15.82404903  4104
